OBJECT_NAME,OBJECT_ID,EPOCH,MEAN_MOTION,ECCENTRICITY,INCLINATION,RA_OF_ASC_NODE,ARG_OF_PERICENTER,MEAN_ANOMALY,EPHEMERIS_TYPE,CLASSIFICATION_TYPE,NORAD_CAT_ID,ELEMENT_SET_NO,REV_AT_EPOCH,BSTAR,MEAN_MOTION_DOT,MEAN_MOTION_DDOT
COSMOS 2058,1990-010A,2026-06-25T14:32:56.026464,15.12067157,.00086694,82.4692,301.0522,326.9287,33.1401,0,U,20465,999,95854,.19595418E-3,.34E-4,0
SL-14 R/B,1990-010B,2026-06-25T11:07:12.992448,14.83651153,.00184911,82.5018,166.1722,307.6333,52.3203,0,U,20466,999,94446,.43520309E-4,.384E-5,0
SL-14 R/B,1990-018B,2026-06-25T05:56:14.272224,14.82221138,.00176869,82.5216,122.5742,97.3684,262.9541,0,U,20511,999,93851,.44526396E-4,.38E-5,0
HST,1990-037B,2026-06-24T23:11:47.893920,15.30829347,.00014424,28.4728,27.4055,233.5980,126.4483,0,U,20580,999,78976,.22544253E-3,.7148E-4,0
SL-16 R/B,1990-046B,2026-06-25T03:33:36.790272,14.15026882,.00127962,71.0001,72.2289,149.2427,210.9448,0,U,20625,999,86359,-.63762083E-4,-.171E-5,0
COSMOS 2084,1990-055A,2026-06-25T13:26:09.009600,15.06148392,.00059797,62.7899,327.5124,293.2090,66.8381,0,U,20663,999,95256,.15122935E-3,.2023E-4,0
SL-6 R/B(2),1990-055D,2026-06-25T13:25:51.115296,15.04026893,.00420252,62.7812,246.8857,6.2708,353.8908,0,U,20666,999,95441,.1121451E-3,.1379E-4,0
SL-8 R/B,1990-078B,2026-06-25T10:35:14.508096,14.92704402,.03486504,82.9014,154.1852,10.6361,350.1986,0,U,20775,999,82535,.86444999E-3,.30598E-3,0
SL-8 R/B,1991-006B,2026-06-25T06:46:53.062176,13.77506602,.00238505,82.9426,90.0117,93.1701,24.3910,0,U,21088,999,77888,.35849554E-4,.51E-6,0
OKEAN-3,1991-039A,2026-06-25T13:55:58.271520,15.05363509,.00131489,82.5162,232.2430,326.8671,33.1730,0,U,21397,999,88126,.15903615E-3,.2309E-4,0
COSMOS 2151,1991-042A,2026-06-25T12:42:00.122112,15.00459961,.00135566,82.4964,339.6293,58.8815,301.3737,0,U,21422,999,87936,.13596162E-3,.174E-4,0
SL-14 R/B,1991-042B,2026-06-25T06:08:04.875936,14.81907077,.00155026,82.4933,119.3296,245.5836,114.3761,0,U,21423,999,86900,.40306143E-4,.343E-5,0
ERS-1,1991-050A,2026-06-25T13:48:19.052064,14.39521726,.0030827,98.7796,197.4783,241.1353,118.6740,0,U,21574,999,83125,.10133078E-3,.271E-5,0
ARIANE 40 R/B,1991-050F,2026-06-25T13:52:32.940192,14.42961509,.00044568,98.1871,224.6681,103.2696,256.8992,0,U,21610,999,83455,.89942615E-4,.259E-5,0
INTERCOSMOS 25,1991-086A,2026-06-25T10:45:14.842080,12.12209886,.14839679,82.6043,244.8109,244.5551,99.4903,0,U,21819,999,50974,.1920445E-3,.966E-5,0
SL-8 R/B,1992-008B,2026-06-25T13:44:26.922912,13.75979166,.00343645,82.9259,187.5527,190.8916,287.4974,0,U,21876,999,72425,.15289072E-3,.164E-5,0
SL-8 R/B,1992-020B,2026-06-25T10:37:01.840224,13.75549693,.00291408,82.9304,73.7258,359.9364,176.5388,0,U,21938,999,71594,.42657279E-4,.56E-6,0
USA 81,1992-023A,2026-06-25T10:45:09.411840,14.32400171,.00026785,85.0072,69.2397,77.8404,282.3088,0,U,21949,999,11021,.4486222E-4,.141E-5,0
COSMOS 2219,1992-076A,2026-06-25T06:06:45.203904,14.14104908,.0016995,71.0594,153.2063,30.5709,329.6400,0,U,22219,999,73358,.20246183E-3,.339E-5,0
SL-16 R/B,1992-076B,2026-06-25T12:04:19.786656,14.16875718,.00149389,71.0013,321.2626,287.7097,139.6863,0,U,22220,999,73710,.14934467E-4,-.18E-6,0
COSMOS 2221,1992-080A,2026-06-25T11:55:26.491296,14.96552978,.0014021,82.5030,175.8030,183.2148,176.8986,0,U,22236,999,79691,.12469638E-3,.1447E-4,0
SL-16 R/B,1992-093B,2026-06-25T07:10:14.099520,14.15460326,.00035489,71.0203,138.3625,172.7218,187.3957,0,U,22285,999,72838,.86884236E-4,.122E-5,0
COSMOS 2228,1992-094A,2026-06-25T12:09:13.168224,14.97614256,.001622,82.5180,134.0743,302.4049,57.5604,0,U,22286,999,79219,.16517353E-3,.1961E-4,0
SL-16 R/B,1993-016B,2026-06-25T13:29:50.349120,14.15315861,.00096317,71.0088,348.6155,171.7757,188.3526,0,U,22566,999,71743,-.37267446E-4,-.12E-5,0
COSMOS 2242,1993-024A,2026-06-25T11:16:17.945760,14.96926699,.00147205,82.5181,163.6185,306.5712,53.4155,0,U,22626,999,79651,.14099699E-3,.1648E-4,0
SL-16 R/B,1993-059B,2026-06-25T06:05:23.969760,14.17247110,.00155599,70.9890,144.2926,40.5110,319.7169,0,U,22803,999,69477,.10553285E-4,-.27E-6,0
ARIANE 40 R/B,1993-061H,2026-06-25T10:40:57.668160,14.32910842,.00099619,98.4816,243.1306,330.8756,29.1872,0,U,22830,999,70953,.71131078E-4,.151E-5,0
COSMOS 2278,1994-023A,2026-06-25T14:12:44.978400,14.14398540,.00104795,71.0553,309.3395,233.7249,126.2906,0,U,23087,999,66006,-.43870047E-4,-.131E-5,0
SL-16 R/B,1994-023B,2026-06-25T12:28:06.210912,14.15027689,.00021703,70.9986,204.4327,180.5063,179.6058,0,U,23088,999,66134,-.134439E-5,-.5E-6,0
SL-16 R/B,1994-074B,2026-06-25T13:15:11.941920,14.79508848,.00055275,97.6988,202.9247,219.7332,300.3768,0,U,23343,999,70319,.60043957E-4,.4E-5,0
