COSMOS 2058             
1 20465U 90010A   26176.60620401  .00003400  00000+0  19595-3 0  9996
2 20465  82.4692 301.0522 0008669 326.9287  33.1401 15.12067157958547
SL-14 R/B               
1 20466U 90010B   26176.46334482  .00000384  00000+0  43520-4 0  9996
2 20466  82.5018 166.1722 0018491 307.6333  52.3203 14.83651153944466
SL-14 R/B               
1 20511U 90018B   26176.24738741  .00000380  00000+0  44526-4 0  9990
2 20511  82.5216 122.5742 0017686  97.3684 262.9541 14.82221138938510
HST                     
1 20580U 90037B   26175.96652655  .00007148  00000+0  22544-3 0  9998
2 20580  28.4728  27.4055 0001442 233.5980 126.4483 15.30829347789769
SL-16 R/B               
1 20625U 90046B   26176.14834248 -.00000171  00000+0 -63762-4 0  9998
2 20625  71.0001  72.2289 0012796 149.2427 210.9448 14.15026882863596
COSMOS 2084             
1 20663U 90055A   26176.55982650  .00002023  00000+0  15123-3 0  9999
2 20663  62.7899 327.5124 0005979 293.2090  66.8381 15.06148392952567
SL-6 R/B(2)             
1 20666U 90055D   26176.55961939  .00001379  00000+0  11215-3 0  9990
2 20666  62.7812 246.8857 0042025   6.2708 353.8908 15.04026893954411
SL-8 R/B                
1 20775U 90078B   26176.44114014  .00030598  00000+0  86445-3 0  9990
2 20775  82.9014 154.1852 0348650  10.6361 350.1986 14.92704402825354
SL-8 R/B                
1 21088U 91006B   26176.28255859  .00000051  00000+0  35850-4 0  9991
2 21088  82.9426  90.0117 0023850  93.1701  24.3910 13.77506602778883
OKEAN-3                 
1 21397U 91039A   26176.58053555  .00002309  00000+0  15904-3 0  9997
2 21397  82.5162 232.2430 0013148 326.8671  33.1730 15.05363509881263
COSMOS 2151             
1 21422U 91042A   26176.52916808  .00001740  00000+0  13596-3 0  9996
2 21422  82.4964 339.6293 0013556  58.8815 301.3737 15.00459961879363
SL-14 R/B               
1 21423U 91042B   26176.25561199  .00000343  00000+0  40306-4 0  9994
2 21423  82.4933 119.3296 0015502 245.5836 114.3761 14.81907077869000
ERS-1                   
1 21574U 91050A   26176.57522051  .00000271  00000+0  10133-3 0  9993
2 21574  98.7796 197.4783 0030827 241.1353 118.6740 14.39521726831251
ARIANE 40 R/B           
1 21610U 91050F   26176.57815903  .00000259  00000+0  89943-4 0  9997
2 21610  98.1871 224.6681 0004456 103.2696 256.8992 14.42961509834558
INTERCOSMOS 25          
1 21819U 91086A   26176.44808845  .00000966  00000+0  19204-3 0  9997
2 21819  82.6043 244.8109 1483967 244.5551  99.4903 12.12209886509746
SL-8 R/B                
1 21876U 92008B   26176.57253383  .00000164  00000+0  15289-3 0  9999
2 21876  82.9259 187.5527 0034364 190.8916 287.4974 13.75979166724255
SL-8 R/B                
1 21938U 92020B   26176.44238241  .00000056  00000+0  42657-4 0  9994
2 21938  82.9304  73.7258 0029140 359.9364 176.5388 13.75549693715944
USA 81                  
1 21949U 92023A   26176.44802560  .00000141  00000+0  44862-4 0  9995
2 21949  85.0072  69.2397 0002678  77.8404 282.3088 14.32400171110217
COSMOS 2219             
1 22219U 92076A   26176.25468986  .00000339  00000+0  20246-3 0  9991
2 22219  71.0594 153.2063 0016995  30.5709 329.6400 14.14104908733580
SL-16 R/B               
1 22220U 92076B   26176.50300679 -.00000018  00000+0  14934-4 0  9998
2 22220  71.0013 321.2626 0014938 287.7097 139.6863 14.16875718737101
COSMOS 2221             
1 22236U 92080A   26176.49683439  .00001447  00000+0  12470-3 0  9994
2 22236  82.5030 175.8030 0014021 183.2148 176.8986 14.96552978796917
SL-16 R/B               
1 22285U 92093B   26176.29877430  .00000122  00000+0  86884-4 0  9996
2 22285  71.0203 138.3625 0003548 172.7218 187.3957 14.15460326728380
COSMOS 2228             
1 22286U 92094A   26176.50640241  .00001961  00000+0  16517-3 0  9997
2 22286  82.5180 134.0743 0016220 302.4049  57.5604 14.97614256792191
SL-16 R/B               
1 22566U 93016B   26176.56238830 -.00000120  00000+0 -37267-4 0  9990
2 22566  71.0088 348.6155 0009631 171.7757 188.3526 14.15315861717433
COSMOS 2242             
1 22626U 93024A   26176.46965215  .00001648  00000+0  14100-3 0  9993
2 22626  82.5181 163.6185 0014720 306.5712  53.4155 14.96926699796515
SL-16 R/B               
1 22803U 93059B   26176.25374965 -.00000027  00000+0  10553-4 0  9991
2 22803  70.9890 144.2926 0015559  40.5110 319.7169 14.17247110694771
ARIANE 40 R/B           
1 22830U 93061H   26176.44511190  .00000151  00000+0  71131-4 0  9994
2 22830  98.4816 243.1306 0009961 330.8756  29.1872 14.32910842709536
COSMOS 2278             
1 23087U 94023A   26176.59218725 -.00000131  00000+0 -43870-4 0  9991
2 23087  71.0553 309.3395 0010479 233.7249 126.2906 14.14398540660069
SL-16 R/B               
1 23088U 94023B   26176.51951633 -.00000050  00000+0 -13444-5 0  9991
2 23088  70.9986 204.4327 0002170 180.5063 179.6058 14.15027689661346
SL-16 R/B               
1 23343U 94074B   26176.55222155  .00000400  00000+0  60044-4 0  9999
2 23343  97.6988 202.9247 0005527 219.7332 300.3768 14.79508848703197
